[{"OBJECT_NAME":"DAMPE","OBJECT_ID":"2015-078A","EPOCH":"2026-03-09T23:55:00.527232","MEAN_MOTION":15.30502084,"ECCENTRICITY":0.00138005,"INCLINATION":97.4588,"RA_OF_ASC_NODE":73.9866,"ARG_OF_PERICENTER":70.6942,"MEAN_ANOMALY":289.579,"EPHEMERIS_TYPE":0,"CLASSIFICATION_TYPE":"U","NORAD_CAT_ID":41173,"ELEMENT_SET_NO":999,"REV_AT_EPOCH":56937,"BSTAR":9.1158173e-5,"MEAN_MOTION_DOT":2.617e-5,"MEAN_MOTION_DDOT":0},{"OBJECT_NAME":"STARLINK-30333","OBJECT_ID":"2023-129E","EPOCH":"2026-03-09T11:23:04.163136","MEAN_MOTION":15.27446954,"ECCENTRICITY":0.00013458,"INCLINATION":43.0019,"RA_OF_ASC_NODE":118.784,"ARG_OF_PERICENTER":251.2215,"MEAN_ANOMALY":108.8491,"EPHEMERIS_TYPE":0,"CLASSIFICATION_TYPE":"U","NORAD_CAT_ID":57702,"ELEMENT_SET_NO":999,"REV_AT_EPOCH":14065,"BSTAR":0.0022598898,"MEAN_MOTION_DOT":0.00062198,"MEAN_MOTION_DDOT":0}]
